[{"OBJECT_NAME":"SL-8 R/B","OBJECT_ID":"1988-053B","EPOCH":"2026-03-21T11:39:42.420960","MEAN_MOTION":14.38923655,"ECCENTRICITY":0.00215401,"INCLINATION":74.045,"RA_OF_ASC_NODE":90.7204,"ARG_OF_PERICENTER":268.4666,"MEAN_ANOMALY":205.5772,"EPHEMERIS_TYPE":0,"CLASSIFICATION_TYPE":"U","NORAD_CAT_ID":19257,"ELEMENT_SET_NO":999,"REV_AT_EPOCH":97829,"BSTAR":0.00011072232,"MEAN_MOTION_DOT":3.16e-6,"MEAN_MOTION_DDOT":0},{"OBJECT_NAME":"COSMOS 1975","OBJECT_ID":"1988-093A","EPOCH":"2026-03-21T13:50:37.203072","MEAN_MOTION":15.28220029,"ECCENTRICITY":0.00131052,"INCLINATION":82.516,"RA_OF_ASC_NODE":105.7484,"ARG_OF_PERICENTER":124.6727,"MEAN_ANOMALY":235.575,"EPHEMERIS_TYPE":0,"CLASSIFICATION_TYPE":"U","NORAD_CAT_ID":19573,"ELEMENT_SET_NO":999,"REV_AT_EPOCH":2122,"BSTAR":0.00027013404,"MEAN_MOTION_DOT":7.478e-5,"MEAN_MOTION_DDOT":0},{"OBJECT_NAME":"SL-14 R/B","OBJECT_ID":"1988-093B","EPOCH":"2026-03-21T14:30:30.054528","MEAN_MOTION":14.85670452,"ECCENTRICITY":0.00207652,"INCLINATION":82.5329,"RA_OF_ASC_NODE":30.8597,"ARG_OF_PERICENTER":3.2803,"MEAN_ANOMALY":170.2082,"EPHEMERIS_TYPE":0,"CLASSIFICATION_TYPE":"U","NORAD_CAT_ID":19574,"ELEMENT_SET_NO":999,"REV_AT_EPOCH":278,"BSTAR":6.1495068e-5,"MEAN_MOTION_DOT":5.59e-6,"MEAN_MOTION_DDOT":0},{"OBJECT_NAME":"SL-16 R/B","OBJECT_ID":"1988-102B","EPOCH":"2026-03-21T13:25:55.035264","MEAN_MOTION":14.16155551,"ECCENTRICITY":0.00148007,"INCLINATION":70.9986,"RA_OF_ASC_NODE":126.5225,"ARG_OF_PERICENTER":343.1373,"MEAN_ANOMALY":16.9256,"EPHEMERIS_TYPE":0,"CLASSIFICATION_TYPE":"U","NORAD_CAT_ID":19650,"ELEMENT_SET_NO":999,"REV_AT_EPOCH":92857,"BSTAR":-7.1162155e-5,"MEAN_MOTION_DOT":-1.89e-6,"MEAN_MOTION_DDOT":0},{"OBJECT_NAME":"INTERCOSMOS 24","OBJECT_ID":"1989-080A","EPOCH":"2026-03-21T11:29:33.886752","MEAN_MOTION":12.59574068,"ECCENTRICITY":0.11867115,"INCLINATION":82.6016,"RA_OF_ASC_NODE":96.7251,"ARG_OF_PERICENTER":265.4286,"MEAN_ANOMALY":81.0626,"EPHEMERIS_TYPE":0,"CLASSIFICATION_TYPE":"U","NORAD_CAT_ID":20261,"ELEMENT_SET_NO":999,"REV_AT_EPOCH":66828,"BSTAR":0.00016798851,"MEAN_MOTION_DOT":5.65e-6,"MEAN_MOTION_DDOT":0},{"OBJECT_NAME":"SL-14 R/B","OBJECT_ID":"1989-080C","EPOCH":"2026-03-21T03:48:26.098560","MEAN_MOTION":12.50505429,"ECCENTRICITY":0.12308261,"INCLINATION":82.5967,"RA_OF_ASC_NODE":165.8267,"ARG_OF_PERICENTER":158.5457,"MEAN_ANOMALY":207.2223,"EPHEMERIS_TYPE":0,"CLASSIFICATION_TYPE":"U","NORAD_CAT_ID":20262,"ELEMENT_SET_NO":999,"REV_AT_EPOCH":66158,"BSTAR":0.00011010744,"MEAN_MOTION_DOT":3.9e-6,"MEAN_MOTION_DDOT":0},{"OBJECT_NAME":"DELTA 1 R/B","OBJECT_ID":"1989-089B","EPOCH":"2026-03-21T13:17:12.818976","MEAN_MOTION":14.5067284,"ECCENTRICITY":0.00707044,"INCLINATION":97.0696,"RA_OF_ASC_NODE":286.1045,"ARG_OF_PERICENTER":85.2308,"MEAN_ANOMALY":275.696,"EPHEMERIS_TYPE":0,"CLASSIFICATION_TYPE":"U","NORAD_CAT_ID":20323,"ELEMENT_SET_NO":999,"REV_AT_EPOCH":89745,"BSTAR":9.3577672e-5,"MEAN_MOTION_DOT":3.45e-6,"MEAN_MOTION_DDOT":0},{"OBJECT_NAME":"ARIANE 40 R/B","OBJECT_ID":"1990-005H","EPOCH":"2026-03-21T03:22:23.826720","MEAN_MOTION":14.39877284,"ECCENTRICITY":0.00105709,"INCLINATION":98.3058,"RA_OF_ASC_NODE":140.4595,"ARG_OF_PERICENTER":164.1162,"MEAN_ANOMALY":196.036,"EPHEMERIS_TYPE":0,"CLASSIFICATION_TYPE":"U","NORAD_CAT_ID":20443,"ELEMENT_SET_NO":999,"REV_AT_EPOCH":89445,"BSTAR":7.6508593e-5,"MEAN_MOTION_DOT":1.98e-6,"MEAN_MOTION_DDOT":0},{"OBJECT_NAME":"DELTA 2 R/B(1)","OBJECT_ID":"1990-008B","EPOCH":"2026-03-21T10:21:12.912480","MEAN_MOTION":15.57426832,"ECCENTRICITY":0.00809056,"INCLINATION":35.6026,"RA_OF_ASC_NODE":97.7047,"ARG_OF_PERICENTER":7.6483,"MEAN_ANOMALY":352.5469,"EPHEMERIS_TYPE":0,"CLASSIFICATION_TYPE":"U","NORAD_CAT_ID":20453,"ELEMENT_SET_NO":999,"REV_AT_EPOCH":92796,"BSTAR":0.00094669166,"MEAN_MOTION_DOT":0.00084489,"MEAN_MOTION_DDOT":0},{"OBJECT_NAME":"COSMOS 2058","OBJECT_ID":"1990-010A","EPOCH":"2026-03-21T08:48:06.569280","MEAN_MOTION":15.1141884,"ECCENTRICITY":0.0007813,"INCLINATION":82.4679,"RA_OF_ASC_NODE":35.9208,"ARG_OF_PERICENTER":301.9292,"MEAN_ANOMALY":58.1178,"EPHEMERIS_TYPE":0,"CLASSIFICATION_TYPE":"U","NORAD_CAT_ID":20465,"ELEMENT_SET_NO":999,"REV_AT_EPOCH":94400,"BSTAR":0.00029910914,"MEAN_MOTION_DOT":5.083e-5,"MEAN_MOTION_DDOT":0},{"OBJECT_NAME":"SL-14 R/B","OBJECT_ID":"1990-010B","EPOCH":"2026-03-21T13:22:44.563008","MEAN_MOTION":14.8357931,"ECCENTRICITY":0.00183474,"INCLINATION":82.4988,"RA_OF_ASC_NODE":256.2374,"ARG_OF_PERICENTER":260.1059,"MEAN_ANOMALY":99.8085,"EPHEMERIS_TYPE":0,"CLASSIFICATION_TYPE":"U","NORAD_CAT_ID":20466,"ELEMENT_SET_NO":999,"REV_AT_EPOCH":93024,"BSTAR":5.4012367e-5,"MEAN_MOTION_DOT":4.7e-6,"MEAN_MOTION_DDOT":0},{"OBJECT_NAME":"SL-14 R/B","OBJECT_ID":"1990-018B","EPOCH":"2026-03-21T09:13:11.348832","MEAN_MOTION":14.82156652,"ECCENTRICITY":0.00173945,"INCLINATION":82.5225,"RA_OF_ASC_NODE":212.1602,"ARG_OF_PERICENTER":56.5331,"MEAN_ANOMALY":303.7543,"EPHEMERIS_TYPE":0,"CLASSIFICATION_TYPE":"U","NORAD_CAT_ID":20511,"ELEMENT_SET_NO":999,"REV_AT_EPOCH":92431,"BSTAR":5.6925645e-5,"MEAN_MOTION_DOT":4.78e-6,"MEAN_MOTION_DDOT":0},{"OBJECT_NAME":"HST","OBJECT_ID":"1990-037B","EPOCH":"2026-03-21T08:39:32.066784","MEAN_MOTION":15.29656769,"ECCENTRICITY":0.0001508,"INCLINATION":28.4723,"RA_OF_ASC_NODE":320.3734,"ARG_OF_PERICENTER":254.4607,"MEAN_ANOMALY":105.5822,"EPHEMERIS_TYPE":0,"CLASSIFICATION_TYPE":"U","NORAD_CAT_ID":20580,"ELEMENT_SET_NO":999,"REV_AT_EPOCH":77510,"BSTAR":0.00028926578,"MEAN_MOTION_DOT":8.789e-5,"MEAN_MOTION_DDOT":0},{"OBJECT_NAME":"SL-16 R/B","OBJECT_ID":"1990-046B","EPOCH":"2026-03-21T13:45:44.129952","MEAN_MOTION":14.15012144,"ECCENTRICITY":0.00162281,"INCLINATION":70.9954,"RA_OF_ASC_NODE":272.9542,"ARG_OF_PERICENTER":283.9588,"MEAN_ANOMALY":75.973,"EPHEMERIS_TYPE":0,"CLASSIFICATION_TYPE":"U","NORAD_CAT_ID":20625,"ELEMENT_SET_NO":999,"REV_AT_EPOCH":85007,"BSTAR":7.1027095e-5,"MEAN_MOTION_DOT":9.0e-7,"MEAN_MOTION_DDOT":0},{"OBJECT_NAME":"COSMOS 2084","OBJECT_ID":"1990-055A","EPOCH":"2026-03-21T14:38:13.743456","MEAN_MOTION":15.05712503,"ECCENTRICITY":0.00152715,"INCLINATION":62.7887,"RA_OF_ASC_NODE":294.9204,"ARG_OF_PERICENTER":193.339,"MEAN_ANOMALY":166.7309,"EPHEMERIS_TYPE":0,"CLASSIFICATION_TYPE":"U","NORAD_CAT_ID":20663,"ELEMENT_SET_NO":999,"REV_AT_EPOCH":93811,"BSTAR":0.00016242564,"MEAN_MOTION_DOT":2.163e-5,"MEAN_MOTION_DDOT":0},{"OBJECT_NAME":"SL-6 R/B(2)","OBJECT_ID":"1990-055D","EPOCH":"2026-03-21T13:00:59.331168","MEAN_MOTION":15.03649888,"ECCENTRICITY":0.00267228,"INCLINATION":62.7831,"RA_OF_ASC_NODE":213.5409,"ARG_OF_PERICENTER":349.8159,"MEAN_ANOMALY":10.2396,"EPHEMERIS_TYPE":0,"CLASSIFICATION_TYPE":"U","NORAD_CAT_ID":20666,"ELEMENT_SET_NO":999,"REV_AT_EPOCH":93997,"BSTAR":0.00018545532,"MEAN_MOTION_DOT":2.368e-5,"MEAN_MOTION_DDOT":0},{"OBJECT_NAME":"SL-8 R/B","OBJECT_ID":"1990-078B","EPOCH":"2026-03-21T12:50:16.459872","MEAN_MOTION":14.89421495,"ECCENTRICITY":0.03598073,"INCLINATION":82.9016,"RA_OF_ASC_NODE":240.6523,"ARG_OF_PERICENTER":334.0928,"MEAN_ANOMALY":24.2647,"EPHEMERIS_TYPE":0,"CLASSIFICATION_TYPE":"U","NORAD_CAT_ID":20775,"ELEMENT_SET_NO":999,"REV_AT_EPOCH":81106,"BSTAR":0.0005889135,"MEAN_MOTION_DOT":0.00019905,"MEAN_MOTION_DDOT":0}]
