SL-8 R/B                
1 19257U 88053B   26080.48590765  .00000316  00000+0  11072-3 0  9991
2 19257  74.0450  90.7204 0021540 268.4666 205.5772 14.38923655978297
COSMOS 1975             
1 19573U 88093A   26080.57681948  .00007478  00000+0  27013-3 0  9998
2 19573  82.5160 105.7484 0013105 124.6727 235.5750 15.28220029 21222
SL-14 R/B               
1 19574U 88093B   26080.60451452  .00000559  00000+0  61495-4 0  9994
2 19574  82.5329  30.8597 0020765   3.2803 170.2082 14.85670452  2784
SL-16 R/B               
1 19650U 88102B   26080.55966476 -.00000189  00000+0 -71162-4 0  9994
2 19650  70.9986 126.5225 0014800 343.1373  16.9256 14.16155551928576
INTERCOSMOS 24          
1 20261U 89080A   26080.47886443  .00000565  00000+0  16799-3 0  9996
2 20261  82.6016  96.7251 1186711 265.4286  81.0626 12.59574068668284
SL-14 R/B               
1 20262U 89080C   26080.15863540  .00000390  00000+0  11011-3 0  9993
2 20262  82.5967 165.8267 1230826 158.5457 207.2223 12.50505429661580
DELTA 1 R/B             
1 20323U 89089B   26080.55362059  .00000345  00000+0  93578-4 0  9992
2 20323  97.0696 286.1045 0070704  85.2308 275.6960 14.50672840897454
ARIANE 40 R/B           
1 20443U 90005H   26080.14055355  .00000198  00000+0  76509-4 0  9999
2 20443  98.3058 140.4595 0010570 164.1162 196.0360 14.39877284894458
DELTA 2 R/B(1)          
1 20453U 90008B   26080.43139945  .00084489  00000+0  94669-3 0  9994
2 20453  35.6026  97.7047 0080905   7.6483 352.5469 15.57426832927962
COSMOS 2058             
1 20465U 90010A   26080.36674270  .00005083  00000+0  29911-3 0  9998
2 20465  82.4679  35.9208 0007813 301.9292  58.1178 15.11418840944007
SL-14 R/B               
1 20466U 90010B   26080.55746022  .00000470  00000+0  54012-4 0  9991
2 20466  82.4988 256.2374 0018347 260.1059  99.8085 14.83579310930242
SL-14 R/B               
1 20511U 90018B   26080.38415913  .00000478  00000+0  56926-4 0  9997
2 20511  82.5225 212.1602 0017394  56.5331 303.7543 14.82156652924310
HST                     
1 20580U 90037B   26080.36078781  .00008789  00000+0  28927-3 0  9992
2 20580  28.4723 320.3734 0001508 254.4607 105.5822 15.29656769775106
SL-16 R/B               
1 20625U 90046B   26080.57342743  .00000090  00000+0  71027-4 0  9994
2 20625  70.9954 272.9542 0016228 283.9588  75.9730 14.15012144850078
COSMOS 2084             
1 20663U 90055A   26080.60988129  .00002163  00000+0  16243-3 0  9995
2 20663  62.7887 294.9204 0015271 193.3390 166.7309 15.05712503938114
SL-6 R/B(2)             
1 20666U 90055D   26080.54235337  .00002368  00000+0  18546-3 0  9992
2 20666  62.7831 213.5409 0026722 349.8159  10.2396 15.03649888939971
SL-8 R/B                
1 20775U 90078B   26080.53491273  .00019905  00000+0  58891-3 0  9992
2 20775  82.9016 240.6523 0359807 334.0928  24.2647 14.89421495811060
